[{"OBJECT_NAME":"OBJECT F","OBJECT_ID":"2023-072F","EPOCH":"2026-03-09T23:31:37.259904","MEAN_MOTION":15.29470958,"ECCENTRICITY":0.00062878,"INCLINATION":97.5173,"RA_OF_ASC_NODE":265.798,"ARG_OF_PERICENTER":19.0017,"MEAN_ANOMALY":341.1456,"EPHEMERIS_TYPE":0,"CLASSIFICATION_TYPE":"U","NORAD_CAT_ID":56748,"ELEMENT_SET_NO":999,"REV_AT_EPOCH":15460,"BSTAR":0.00043416252,"MEAN_MOTION_DOT":0.00012341,"MEAN_MOTION_DDOT":0},{"OBJECT_NAME":"STARLINK-35348","OBJECT_ID":"2025-224Y","EPOCH":"2026-03-09T06:34:20.491392","MEAN_MOTION":15.301986,"ECCENTRICITY":0.00010803,"INCLINATION":53.1596,"RA_OF_ASC_NODE":13.0618,"ARG_OF_PERICENTER":66.3027,"MEAN_ANOMALY":293.8087,"EPHEMERIS_TYPE":0,"CLASSIFICATION_TYPE":"U","NORAD_CAT_ID":65904,"ELEMENT_SET_NO":999,"REV_AT_EPOCH":2476,"BSTAR":0.00090925509,"MEAN_MOTION_DOT":0.00026666,"MEAN_MOTION_DDOT":0}]
